start=new Date('2021-10-27T00:00:00.000Z').valueOf();
sats=[{"EPHEMERIS_TYPE":"0","PERIAPSIS":"357.167","GP_ID":"188200993","NORAD_CAT_ID":"49153","ARG_OF_PERICENTER":"292.2492","OBJECT_ID":"2021-082Z","RCS_SIZE":"LARGE","TIME_SYSTEM":"UTC","LAUNCH_DATE":"2021-09-14","PERIOD":"91.738","REF_FRAME":"TEME","MEAN_MOTION":"15.69690002","MEAN_MOTION_DOT":"0.00062650","CENTER_NAME":"EARTH","OBJECT_TYPE":"PAYLOAD","DECAY_DATE":null,"COUNTRY_CODE":"US","SEMIMAJOR_AXIS":"6737.921","BSTAR":"0.00052390000000","TLE_LINE1":"1 49153U 21082Z   21299.58337963  .00062650  00000-0  52390-3 0  9993","FILE":"3184921","INCLINATION":"70.0013","MEAN_MOTION_DDOT":"0.0000000000000","REV_AT_EPOCH":"366","ELEMENT_SET_NO":"999","APOAPSIS":"362.405","TLE_LINE2":"2 49153  70.0013   7.5089 0003887 292.2492 200.0309 15.69690002  3667","CLASSIFICATION_TYPE":"U","EPOCH":"2021-10-26T14:00:04.000032","ECCENTRICITY":"0.00038870","MEAN_ELEMENT_THEORY":"SGP4","SITE":"AFWTR","OBJECT_NAME":"STARLINK-3072","RA_OF_ASC_NODE":"7.5089","MEAN_ANOMALY":"200.0309"},{"LAUNCH_DATE":"2021-09-14","RCS_SIZE":"LARGE","TIME_SYSTEM":"UTC","REF_FRAME":"TEME","PERIOD":"91.731","MEAN_MOTION":"15.69799219","MEAN_MOTION_DOT":"-0.00130198","PERIAPSIS":"356.834","EPHEMERIS_TYPE":"0","GP_ID":"188201763","ARG_OF_PERICENTER":"294.5562","OBJECT_ID":"2021-082AA","NORAD_CAT_ID":"49154","TLE_LINE2":"2 49154  70.0012   6.7984 0003917 294.5562 176.2318 15.69799219  7881","SITE":"AFWTR","MEAN_ELEMENT_THEORY":"SGP4","ECCENTRICITY":"0.00039170","CLASSIFICATION_TYPE":"U","EPOCH":"2021-10-26T20:00:01.000224","OBJECT_NAME":"STARLINK-3068","RA_OF_ASC_NODE":"6.7984","MEAN_ANOMALY":"176.2318","OBJECT_TYPE":"PAYLOAD","CENTER_NAME":"EARTH","DECAY_DATE":null,"COUNTRY_CODE":"US","BSTAR":"-0.00110340000000","SEMIMAJOR_AXIS":"6737.608","TLE_LINE1":"1 49154U 21082AA  21299.83334491 -.00130198  00000-0 -11034-2 0  9999","FILE":"3184991","REV_AT_EPOCH":"788","MEAN_MOTION_DDOT":"0.0000000000000","INCLINATION":"70.0012","APOAPSIS":"362.113","ELEMENT_SET_NO":"999"},{"MEAN_MOTION_DOT":"-0.00094817","MEAN_MOTION":"15.69587649","REF_FRAME":"TEME","PERIOD":"91.744","LAUNCH_DATE":"2021-09-14","TIME_SYSTEM":"UTC","RCS_SIZE":"LARGE","OBJECT_ID":"2021-082AB","NORAD_CAT_ID":"49155","ARG_OF_PERICENTER":"293.2500","GP_ID":"188202091","PERIAPSIS":"357.737","EPHEMERIS_TYPE":"0","MEAN_ANOMALY":"174.0054","RA_OF_ASC_NODE":"6.8011","OBJECT_NAME":"STARLINK-3060","SITE":"AFWTR","MEAN_ELEMENT_THEORY":"SGP4","CLASSIFICATION_TYPE":"U","EPOCH":"2021-10-26T20:00:01.000224","ECCENTRICITY":"0.00034760","TLE_LINE2":"2 49155  69.9998   6.8011 0003476 293.2500 174.0054 15.69587649  7887","APOAPSIS":"362.421","ELEMENT_SET_NO":"999","FILE":"3184991","MEAN_MOTION_DDOT":"0.0000000000000","REV_AT_EPOCH":"788","INCLINATION":"69.9998","TLE_LINE1":"1 49155U 21082AB  21299.83334491 -.00094817  00000-0 -80683-3 0  9994","SEMIMAJOR_AXIS":"6738.214","BSTAR":"-0.00080683000000","DECAY_DATE":null,"COUNTRY_CODE":"US","OBJECT_TYPE":"PAYLOAD","CENTER_NAME":"EARTH"},{"OBJECT_ID":"2021-082AC","ARG_OF_PERICENTER":"293.8248","NORAD_CAT_ID":"49156","GP_ID":"188201212","PERIAPSIS":"356.822","EPHEMERIS_TYPE":"0","MEAN_MOTION":"15.69752606","MEAN_MOTION_DOT":"-0.00002333","REF_FRAME":"TEME","PERIOD":"91.734","LAUNCH_DATE":"2021-09-14","TIME_SYSTEM":"UTC","RCS_SIZE":"LARGE","APOAPSIS":"362.392","ELEMENT_SET_NO":"999","FILE":"3184921","MEAN_MOTION_DDOT":"0.0000000000000","INCLINATION":"69.9999","REV_AT_EPOCH":"366","SEMIMAJOR_AXIS":"6737.742","BSTAR":"-0.00001775800000","TLE_LINE1":"1 49156U 21082AC  21299.58337963 -.00002333  00000-0 -17758-4 0  9990","OBJECT_TYPE":"PAYLOAD","CENTER_NAME":"EARTH","DECAY_DATE":null,"COUNTRY_CODE":"US","RA_OF_ASC_NODE":"7.4919","MEAN_ANOMALY":"211.2141","MEAN_ELEMENT_THEORY":"SGP4","SITE":"AFWTR","CLASSIFICATION_TYPE":"U","EPOCH":"2021-10-26T14:00:04.000032","ECCENTRICITY":"0.00041330","OBJECT_NAME":"STARLINK-3085","TLE_LINE2":"2 49156  69.9999   7.4919 0004133 293.8248 211.2141 15.69752606  3669"},{"TLE_LINE1":"1 49157U 21082AD  21299.58337963 -.00034162  00000-0 -28516-3 0  9999","SEMIMAJOR_AXIS":"6737.667","BSTAR":"-0.00028516000000","DECAY_DATE":null,"COUNTRY_CODE":"US","OBJECT_TYPE":"PAYLOAD","CENTER_NAME":"EARTH","APOAPSIS":"362.223","ELEMENT_SET_NO":"999","INCLINATION":"70.0011","FILE":"3184921","MEAN_MOTION_DDOT":"0.0000000000000","REV_AT_EPOCH":"366","OBJECT_NAME":"STARLINK-3051","MEAN_ELEMENT_THEORY":"SGP4","SITE":"AFWTR","ECCENTRICITY":"0.00039940","CLASSIFICATION_TYPE":"U","EPOCH":"2021-10-26T14:00:04.000032","TLE_LINE2":"2 49157  70.0011   7.4981 0003994 294.3593 206.3657 15.69778816  3668","MEAN_ANOMALY":"206.3657","RA_OF_ASC_NODE":"7.4981","PERIAPSIS":"356.841","EPHEMERIS_TYPE":"0","OBJECT_ID":"2021-082AD","ARG_OF_PERICENTER":"294.3593","NORAD_CAT_ID":"49157","GP_ID":"188200659","LAUNCH_DATE":"2021-09-14","TIME_SYSTEM":"UTC","RCS_SIZE":"LARGE","MEAN_MOTION_DOT":"-0.00034162","MEAN_MOTION":"15.69778816","REF_FRAME":"TEME","PERIOD":"91.733"},{"RA_OF_ASC_NODE":"6.7850","MEAN_ANOMALY":"186.1942","CLASSIFICATION_TYPE":"U","ECCENTRICITY":"0.00039420","EPOCH":"2021-10-26T20:00:01.000224","MEAN_ELEMENT_THEORY":"SGP4","SITE":"AFWTR","OBJECT_NAME":"STARLINK-3083","TLE_LINE2":"2 49158  70.0009   6.7850 0003942 295.2165 186.1942 15.69784004  7900","ELEMENT_SET_NO":"999","APOAPSIS":"362.173","INCLINATION":"70.0009","FILE":"3185012","MEAN_MOTION_DDOT":"0.0000000000000","REV_AT_EPOCH":"790","BSTAR":"-0.00080144000000","SEMIMAJOR_AXIS":"6737.652","TLE_LINE1":"1 49158U 21082AE  21299.83334491 -.00094961  00000-0 -80144-3 0  9999","CENTER_NAME":"EARTH","OBJECT_TYPE":"PAYLOAD","COUNTRY_CODE":"US","DECAY_DATE":null,"MEAN_MOTION":"15.69784004","MEAN_MOTION_DOT":"-0.00094961","PERIOD":"91.732","REF_FRAME":"TEME","TIME_SYSTEM":"UTC","RCS_SIZE":"LARGE","LAUNCH_DATE":"2021-09-14","ARG_OF_PERICENTER":"295.2165","OBJECT_ID":"2021-082AE","NORAD_CAT_ID":"49158","GP_ID":"188202761","EPHEMERIS_TYPE":"0","PERIAPSIS":"356.861"},{"TLE_LINE1":"1 49159U 21082AF  21299.58337963  .00029651  00000-0  24935-3 0  9997","SEMIMAJOR_AXIS":"6737.778","BSTAR":"0.00024935000000","COUNTRY_CODE":"US","DECAY_DATE":null,"OBJECT_TYPE":"PAYLOAD","CENTER_NAME":"EARTH","APOAPSIS":"362.359","ELEMENT_SET_NO":"999","FILE":"3184921","INCLINATION":"70.0009","MEAN_MOTION_DDOT":"0.0000000000000","REV_AT_EPOCH":"366","OBJECT_NAME":"STARLINK-3056","SITE":"AFWTR","MEAN_ELEMENT_THEORY":"SGP4","CLASSIFICATION_TYPE":"U","ECCENTRICITY":"0.00040310","EPOCH":"2021-10-26T14:00:04.000032","TLE_LINE2":"2 49159  70.0009   7.4951 0004031 293.1309 209.7772 15.69739850  3669","MEAN_ANOMALY":"209.7772","RA_OF_ASC_NODE":"7.4951","PERIAPSIS":"356.927","EPHEMERIS_TYPE":"0","NORAD_CAT_ID":"49159","OBJECT_ID":"2021-082AF","ARG_OF_PERICENTER":"293.1309","GP_ID":"188201435","LAUNCH_DATE":"2021-09-14","TIME_SYSTEM":"UTC","RCS_SIZE":"LARGE","MEAN_MOTION_DOT":"0.00029651","MEAN_MOTION":"15.69739850","PERIOD":"91.735","REF_FRAME":"TEME"},{"RA_OF_ASC_NODE":"7.4832","MEAN_ANOMALY":"217.1653","TLE_LINE2":"2 49160  70.0006   7.4832 0004020 294.2477 217.1653 15.69762636  3661","SITE":"AFWTR","MEAN_ELEMENT_THEORY":"SGP4","EPOCH":"2021-10-26T14:00:04.000032","CLASSIFICATION_TYPE":"U","ECCENTRICITY":"0.00040200","OBJECT_NAME":"STARLINK-3095","MEAN_MOTION_DDOT":"0.0000000000000","FILE":"3184921","REV_AT_EPOCH":"366","INCLINATION":"70.0006","APOAPSIS":"362.287","ELEMENT_SET_NO":"999","OBJECT_TYPE":"PAYLOAD","CENTER_NAME":"EARTH","COUNTRY_CODE":"US","DECAY_DATE":null,"SEMIMAJOR_AXIS":"6737.713","BSTAR":"-0.00025681000000","TLE_LINE1":"1 49160U 21082AG  21299.58337963 -.00030779  00000-0 -25681-3 0  9993","REF_FRAME":"TEME","PERIOD":"91.734","MEAN_MOTION":"15.69762636","MEAN_MOTION_DOT":"-0.00030779","LAUNCH_DATE":"2021-09-14","TIME_SYSTEM":"UTC","RCS_SIZE":"LARGE","GP_ID":"188200878","NORAD_CAT_ID":"49160","OBJECT_ID":"2021-082AG","ARG_OF_PERICENTER":"294.2477","PERIAPSIS":"356.870","EPHEMERIS_TYPE":"0"},{"RA_OF_ASC_NODE":"7.4899","MEAN_ANOMALY":"212.4322","TLE_LINE2":"2 49161  70.0009   7.4899 0003930 294.7483 212.4322 15.69708594  3663","CLASSIFICATION_TYPE":"U","EPOCH":"2021-10-26T14:00:04.000032","ECCENTRICITY":"0.00039300","SITE":"AFWTR","MEAN_ELEMENT_THEORY":"SGP4","OBJECT_NAME":"STARLINK-3080","MEAN_MOTION_DDOT":"0.0000000000000","FILE":"3184921","INCLINATION":"70.0009","REV_AT_EPOCH":"366","ELEMENT_SET_NO":"999","APOAPSIS":"362.381","CENTER_NAME":"EARTH","OBJECT_TYPE":"PAYLOAD","COUNTRY_CODE":"US","DECAY_DATE":null,"SEMIMAJOR_AXIS":"6737.868","BSTAR":"0.00040849000000","TLE_LINE1":"1 49161U 21082AH  21299.58337963  .00048759  00000-0  40849-3 0  9992","REF_FRAME":"TEME","PERIOD":"91.737","MEAN_MOTION":"15.69708594","MEAN_MOTION_DOT":"0.00048759","RCS_SIZE":"LARGE","TIME_SYSTEM":"UTC","LAUNCH_DATE":"2021-09-14","GP_ID":"188200994","ARG_OF_PERICENTER":"294.7483","OBJECT_ID":"2021-082AH","NORAD_CAT_ID":"49161","EPHEMERIS_TYPE":"0","PERIAPSIS":"357.085"},{"BSTAR":"-0.00034899000000","SEMIMAJOR_AXIS":"6737.694","TLE_LINE1":"1 49162U 21082AJ  21299.58337963 -.00041706  00000-0 -34899-3 0  9998","CENTER_NAME":"EARTH","OBJECT_TYPE":"PAYLOAD","COUNTRY_CODE":"US","DECAY_DATE":null,"ELEMENT_SET_NO":"999","APOAPSIS":"362.186","MEAN_MOTION_DDOT":"0.0000000000000","FILE":"3184921","INCLINATION":"70.0010","REV_AT_EPOCH":"366","CLASSIFICATION_TYPE":"U","EPOCH":"2021-10-26T14:00:04.000032","ECCENTRICITY":"0.00038990","MEAN_ELEMENT_THEORY":"SGP4","SITE":"AFWTR","OBJECT_NAME":"STARLINK-3082","TLE_LINE2":"2 49162  70.0010   7.4795 0003899 292.0821 223.5585 15.69769309  3667","RA_OF_ASC_NODE":"7.4795","MEAN_ANOMALY":"223.5585","EPHEMERIS_TYPE":"0","PERIAPSIS":"356.932","OBJECT_ID":"2021-082AJ","ARG_OF_PERICENTER":"292.0821","NORAD_CAT_ID":"49162","GP_ID":"188200771","RCS_SIZE":"LARGE","TIME_SYSTEM":"UTC","LAUNCH_DATE":"2021-09-14","MEAN_MOTION":"15.69769309","MEAN_MOTION_DOT":"-0.00041706","PERIOD":"91.733","REF_FRAME":"TEME"}];
